AEROCUBE 6B             
1 40046U 14033AN  26115.43322230  .00007152  00000+0  58805-3 0  9992
2 40046  97.7194 282.6659 0036989 181.4357 178.6766 14.98908569638855
CANX-4                  
1 40055U 14034C   26115.59571744  .00000777  00000+0  10715-3 0  9990
2 40055  98.3195 348.9616 0012818 174.3382 185.7976 14.81165309636743
CANX-5                  
1 40056U 14034D   26115.59475655  .00000775  00000+0  10686-3 0  9990
2 40056  98.3197 349.0010 0012807 174.5873 185.5479 14.81182288627551
UKUBE-1                 
1 40074U 14037F   26115.72740034  .00009007  00000+0  51855-3 0  9994
2 40074  98.4249 113.5262 0001899  46.4173 313.7212 15.12701204640625
BRITE-PL2 (HEWELIUSZ)   
1 40119U 14049B   26115.81451039  .00001694  00000+0  16269-3 0  9995
2 40119  97.9036 227.4367 0012694 284.7952  75.1861 14.94395026633622
AEROCUBE 5C             
1 40965U 15058B   26115.86420588  .00003716  00000+0  33304-3 0  9991
2 40965  64.7675  65.3238 0129611  83.8033 277.7826 14.91135641357855
AEROCUBE 7              
1 40966U 15058C   26115.80742073  .00004831  00000+0  39297-3 0  9998
2 40966  64.7633  48.8255 0119517  82.6181 278.8496 14.95283337358126
FOX-1A (AO-85)          
1 40967U 15058D   26115.62624115  .00003280  00000+0  30051-3 0  9991
2 40967  64.7745  82.2838 0128554  77.1823 284.3617 14.90635436105733
SINOD-D 1               
1 40968U 15058E   26115.85844160  .00005900  00000+0  47706-3 0  9997
2 40968  64.7754  62.7291 0117076  73.9819 287.4153 14.95454933108835
SNAP-3 ALICE            
1 40970U 15058G   26115.82101799  .00078990  00000+0  13260-2 0  9997
2 40970  64.7539 283.5367 0031486  44.9461 315.4220 15.50776069108743
LMRST-SAT               
1 40971U 15058H   26115.29988172  .00003279  00000+0  30202-3 0  9991
2 40971  64.7753  79.5365 0130423  79.3435 282.2333 14.90263003105674
SNAP-3 EDDIE            
1 40972U 15058J   26115.78585681  .00077332  00000+0  12483-2 0  9995
2 40972  64.7458 274.7483 0032223  48.6199 311.7705 15.51850008110876
PROPCUBE 3              
1 40973U 15058K   26115.79898779  .00004231  00000+0  35663-3 0  9996
2 40973  64.7694  56.1671 0122702  80.7205 280.7761 14.93867862106971
BISONSAT                
1 40974U 15058L   26115.84049006  .00014539  00000+0  72623-3 0  9993
2 40974  64.7621 342.7367 0077696  70.7327 290.2180 15.15042843107682
SNAP-3 JIMI             
1 40975U 15058M   26115.85642236  .00008172  00000+0  56840-3 0  9998
2 40975  64.7669  25.2708 0104783  76.9495 284.3294 15.01706908106367
PROPCUBE 1 (FLORA)      
1 40976U 15058N   26115.67642438  .00002770  00000+0  26757-3 0  9995
2 40976  64.7733  97.9403 0129294  81.4628 280.1110 14.88907559108442
SINOD-D 3               
1 40977U 15058P   26115.88836220  .00005197  00000+0  44285-3 0  9995
2 40977  64.7720  79.0775 0117748  78.9746 282.4584 14.93586701106946
